TRANSPORTER-12 OBJECT BT
1 62674U 25009BT  26068.71416991  .00013824  00000+0  51029-3 0  9998
2 62674  97.4094 151.5992 0003682 313.5044  46.5889 15.27872239121360
STARLINK-35994          
1 66818U 25278AD  26068.19275623  .00035072  00000+0  12778-2 0  9993
2 66818  43.0009 117.1212 0001303 187.8915 172.1916 15.27583304 15133
